SatCatId,ObjectName,LaunchYear,OrbitalPeriod,LaunchMass,StatusCode,Inclination,Status,UcsData,OrbitClassEstimated,LaunchSiteCountry,Owner,UseType,Purpose,LaunchVehicleClass,TLE1,TLE2,MeanMotion,Eccentricity,OrbitClass
15386,MARECS-B2,1984,1501.11,-1.0,-,14.23,Inactive,0,HEO,French Guiana,ESA,Unknown,Unknown,Unknown,1 15386U 84114B   24271.80327328 -.00000209  00000+0  00000+0 0  9990,2 15386  14.2348 337.0632 0107727  40.6373 304.2520  0.95929259106652,0.95929259,0.0107727,HEO
23581,GOES 9,1995,1457.45,-1.0,-,13.4,Inactive,0,GSO,USA,USA,Unknown,Unknown,Unknown,1 23581U 95025A   24272.58344653 -.00000256  00000+0  00000+0 0  9997,2 23581  13.4018  18.9508 0008893 157.4267 207.6441  0.98802696106569,0.98802696,0.0008893,GSO
15391,NATO 3D,1984,1516.51,-1.0,-,14.33,Inactive,0,HEO,USA,NATO,Unknown,Unknown,Unknown,1 15391U 84115A   24271.34570862 -.00000171  00000+0  00000+0 0  9997,2 15391  14.3304 358.8487 0103150 118.2546 264.8931  0.94954423141926,0.94954423,0.010315,HEO
23589,UFO 5 (USA 111),1995,1458.19,-1.0,-,11.6,Inactive,0,GSO,USA,USA,Unknown,Unknown,Unknown,1 23589U 95027A   24272.50209750 -.00000112  00000+0  00000+0 0  9998,2 23589  11.6036  13.3920 0001225 161.7078 210.8781  0.98752291106810,0.98752291,0.0001225,GSO
15398,COSMOS 1610,1984,104.81,-1.0,UNK,82.95,Inactive,0,LEO,Russia,Russia/USSR,Unknown,Unknown,Unknown,1 15398U 84118A   24272.94229083  .00000144  00000+0  13684-3 0  9995,2 15398  82.9475 236.1305 0033415  83.6932 330.7799 13.73869377998895,13.73869377,0.0033415,LEO
7209,METEOR 1-16,1974,101.82,-1.0,UNK,81.22,Inactive,0,LEO,Russia,Russia/USSR,Unknown,Unknown,Unknown,1 07209U 74011A   24273.04258728  .00000303  00000+0  15090-3 0  9998,2 07209  81.2236 284.7830 0039409  27.9649 332.3630 14.14293318606969,14.14293318,0.0039409,LEO
7213,MIRANDA (X-4),1974,99.66,-1.0,UNK,97.88,Inactive,0,LEO,USA,UK,Unknown,Unknown,Unknown,1 07213U 74013A   24272.94629246  .00001639  00000+0  44442-3 0  9996,2 07213  97.8803 164.3011 0116155 105.1461 256.2614 14.44885680629150,14.4488568,0.0116155,LEO
23598,DIRECTV 3 (DBS 3),1995,1454.54,-1.0,-,10.9,Inactive,0,GSO,French Guiana,USA,Unknown,Unknown,Unknown,1 23598U 95029A   24272.49880321  .00000030  00000+0  00000+0 0  9995,2 23598  10.8984  39.9034 0004000 175.0131 221.7675  0.99000116106563,0.99000116,0.0004,GSO
7218,OPS 8579 (DMSP 5B F5),1974,100.59,-1.0,-,99.02,Inactive,0,LEO,USA,USA,Unknown,Unknown,Unknown,1 07218U 74015A   24272.90976598  .00000709  00000+0  27995-3 0  9995,2 07218  99.0206 342.2617 0055773 331.5646  28.2495 14.31553289631322,14.31553289,0.0055773,LEO
23603,COSMOS 2315,1995,104.88,-1.0,UNK,82.91,Inactive,0,LEO,Russia,Russia/USSR,Unknown,Unknown,Unknown,1 23603U 95032A   24272.71129036  .00000118  00000+0  11069-3 0  9998,2 23603  82.9091 356.7413 0031545 155.5435 358.2083 13.73005896464724,13.73005896,0.0031545,LEO
23606,CERISE,1995,95.3,-1.0,UNK,98.3,Inactive,0,LEO,French Guiana,France,Unknown,Unknown,Unknown,1 23606U 95033B   24273.12547161  .00025053  00000+0  14960-2 0  9998,2 23606  98.3001  50.9437 0009030 219.4053 140.6519 15.11070643584825,15.11070643,0.000903,LEO
23607,UPM/LBSAT,1995,97.17,-1.0,UNK,98.22,Inactive,0,LEO,French Guiana,Spain,Unknown,Unknown,Unknown,1 23607U 95033C   24272.78372888  .00004014  00000+0  51376-3 0  9999,2 23607  98.2205 211.4388 0006498  38.0809 322.0861 14.81917906573090,14.81917906,0.0006498,LEO
7229,COSMOS 637,1974,1428.88,-1.0,UNK,2.44,Inactive,0,GSO,Kazakhstan,Russia/USSR,Unknown,Unknown,Unknown,1 07229U 74017A   24273.16601056 -.00000270  00000+0  00000+0 0  9990,2 07229   2.4360 270.5702 0038073  49.6590  55.8921  1.00778438115885,1.00778438,0.0038073,GSO
15427,NOAA 9,1984,101.64,-1.0,-,99.12,Inactive,0,LEO,USA,USA,Unknown,Unknown,Unknown,1 15427U 84123A   24272.92561273  .00000518  00000+0  28257-3 0  9999,2 15427  99.1248 272.9408 0014131 326.5920  91.7695 14.16701847 54738,14.16701847,0.0014131,LEO
23620,COSMOS 2316 [GLONASS],1995,675.73,-1.0,-,65.48,Inactive,0,MEO,Kazakhstan,Russia/USSR,Unknown,Unknown,Unknown,1 23620U 95037A   24272.43768472 -.00000018  00000+0  00000+0 0  9993,2 23620  65.4792 223.1134 0013383 156.2422 298.0317  2.13101479227081,2.13101479,0.0013383,MEO
15429,MOLNIYA 1-63,1984,717.94,-1.0,UNK,63.54,Inactive,0,MEO,Russia,Russia/USSR,Unknown,Unknown,Unknown,1 15429U 84124A   24271.38977965 -.00001340  00000+0  00000+0 0  9997,2 15429  63.5356  76.8491 7096254 256.1672  16.9673  2.00573353291460,2.00573353,0.7096254,MEO
23621,COSMOS 2317 [GLONASS],1995,675.73,-1.0,-,65.49,Inactive,0,MEO,Kazakhstan,Russia/USSR,Unknown,Unknown,Unknown,1 23621U 95037B   24268.96827862  .00000028  00000+0  00000+0 0  9996,2 23621  65.4897 223.3646 0009654 168.6520   8.8132  2.13101627227065,2.13101627,0.0009654,MEO
23622,COSMOS 2318 [GLONASS],1995,675.73,-1.0,-,65.48,Inactive,0,MEO,Kazakhstan,Russia/USSR,Unknown,Unknown,Unknown,1 23622U 95037C   24271.35117428 -.00000007  00000+0  00000+0 0  9992,2 23622  65.4812 223.1750 0016558  77.1066  82.8706  2.13101784226856,2.13101784,0.0016558,MEO
7244,OPS 4547,1974,100.59,-1.0,UNK,94.6,Inactive,0,LEO,USA,USA,Unknown,Unknown,Unknown,1 07244U 74020B   24272.96690039  .00000477  00000+0  18355-3 0  9991,2 07244  94.6025 249.3765 0025076 300.7345  59.1378 14.31577915 22430,14.31577915,0.0025076,LEO
23628,USA 113,1995,1459.47,1156.0,-,12.83,Inactive,1,GSO,USA,USA,Military,Communications,Atlas,1 23628U 95038A   24272.70015813 -.00000196  00000+0  00000+0 0  9993,2 23628  12.8314  19.8162 0004821 183.6880 179.7027  0.98666124 26584,0.98666124,0.0004821,GSO
40017,TABLETSAT-AURORA,2014,95.66,-1.0,-,98.11,Inactive,0,LEO,Russia,Russia/USSR,Unknown,Unknown,Unknown,1 40017U 14033H   24273.17421720  .00012718  00000+0  88888-3 0  9996,2 40017  98.1102 301.3178 0014901 175.8176 184.3177 15.05375118560613,15.05375118,0.0014901,LEO
7250,WESTAR 1,1974,1441.52,-1.0,UNK,8.54,Inactive,0,GSO,USA,USA,Unknown,Unknown,Unknown,1 07250U 74022A   24272.98312747 -.00000315  00000+0  00000+0 0  9995,2 07250   8.5376 303.0943 0001941   3.4359 163.3669  0.99894699116067,0.99894699,0.0001941,GSO
23636,INTELSAT 4 (IS-4),1995,1482.57,-1.0,-,10.73,Inactive,0,GSO,French Guiana,INTELSAT,Unknown,Unknown,Unknown,1 23636U 95040A   24273.14107590 -.00000150  00000+0  00000+0 0  9998,2 23636  10.7309  45.2092 0027656 211.4563 345.8961  0.97128541105078,0.97128541,0.0027656,HEO
40022,PACE,2014,96.02,-1.0,-,98.05,Inactive,0,LEO,Russia,Taiwan,Unknown,Unknown,Unknown,1 40022U 14033N   24272.84999949  .00014590  00000+0  11866-2 0  9999,2 40022  98.0537 234.7394 0010864 157.7654 202.4042 14.99627734558754,14.99627734,0.0010864,LEO
40023,FLOCK 1C-10,2014,94.96,-1.0,-,98.08,Inactive,0,LEO,Russia,USA,Unknown,Unknown,Unknown,1 40023U 14033P   24272.89430193  .00058215  00000+0  29764-2 0  9994,2 40023  98.0845 256.8813 0013764 121.8006 238.4567 15.16349489559539,15.16349489,0.0013764,LEO
23639,KOREASAT 1,1995,1444.85,-1.0,-,14.64,Inactive,0,GSO,USA,South Korea,Unknown,Unknown,Unknown,1 23639U 95041A   24272.37615949 -.00000001  00000+0  00000+0 0  9993,2 23639  14.6443   3.3081 0004350 198.0644 189.4304  0.99663999106282,0.99663999,0.000435,GSO
40026,FLOCK 1C-7,2014,93.98,-1.0,-,98.08,Inactive,0,LEO,Russia,USA,Unknown,Unknown,Unknown,1 40026U 14033S   24272.72681723  .00085635  00000+0  27252-2 0  9992,2 40026  98.0766 269.9479 0010178  92.5345 267.7060 15.32198870559653,15.3219887,0.0010178,LEO
40027,FLOCK 1C-1,2014,94.4,-1.0,-,98.08,Inactive,0,LEO,Russia,USA,Unknown,Unknown,Unknown,1 40027U 14033T   24272.94081565  .00077952  00000+0  30480-2 0  9995,2 40027  98.0810 264.3445 0010633 113.6258 246.6096 15.25485442559864,15.25485442,0.0010633,LEO
40028,POPSAT-HIP-1,2014,95.91,-1.0,-,98.06,Inactive,0,LEO,Russia,Singapore,Unknown,Unknown,Unknown,1 40028U 14033U   24273.16585585  .00015182  00000+0  11784-2 0  9995,2 40028  98.0589 239.2543 0011872 137.6109 222.6033 15.01398430558885,15.0139843,0.0011872,LEO
40029,FLOCK 1C-2,2014,94.24,-1.0,-,98.1,Inactive,0,LEO,Russia,USA,Unknown,Unknown,Unknown,1 40029U 14033V   24272.93325385  .00075295  00000+0  27305-2 0  9997,2 40029  98.0983 264.1145 0009867 107.0689 253.1630 15.28004629559891,15.28004629,0.0009867,LEO
15453,USA 7 (DSP 12),1984,1456.63,-1.0,-,12.52,Inactive,0,GSO,USA,USA,Unknown,Unknown,Unknown,1 15453U 84129A   24272.02422899 -.00000237  00000+0  00000+0 0  9996,2 15453  12.5181 325.6057 0004194 226.5378 144.2357  0.98858254 19855,0.98858254,0.0004194,GSO
40031,FLOCK 1C-4,2014,95.17,-1.0,-,98.08,Inactive,0,LEO,Russia,USA,Unknown,Unknown,Unknown,1 40031U 14033X   24273.22097570  .00049729  00000+0  27900-2 0  9999,2 40031  98.0818 255.3098 0010238 115.6093 244.6195 15.13132756559414,15.13132756,0.0010238,LEO
23642,MOLNIYA 3-47,1995,713.0,-1.0,UNK,65.01,Inactive,0,MEO,Russia,Russia/USSR,Unknown,Unknown,Unknown,1 23642U 95042A   24272.13374031 -.00001314  00000+0  00000+0 0  9994,2 23642  65.0080 336.2869 6938369 276.9314  15.1613  2.01963198213856,2.01963198,0.6938369,MEO
40033,FLOCK 1C-11,2014,94.23,-1.0,-,98.12,Inactive,0,LEO,Russia,USA,Unknown,Unknown,Unknown,1 40033U 14033Z   24272.99643675  .00081537  00000+0  29357-2 0  9998,2 40033  98.1202 275.4497 0014213 104.8472 255.4341 15.28161943560228,15.28161943,0.0014213,LEO
7265,COSMOS 641,1974,114.53,-1.0,UNK,74.02,Inactive,0,LEO,Russia,Russia/USSR,Unknown,Unknown,Unknown,1 07265U 74024A   24272.97008635  .00000022  00000+0  22632-3 0  9993,2 07265  74.0152  84.3962 0060020 152.2525   5.5050 12.57340372314897,12.57340372,0.006002,LEO
40034,ANTELSAT,2014,97.13,-1.0,-,97.71,Inactive,0,LEO,Russia,Uruguay,Unknown,Unknown,Unknown,1 40034U 14033AA  24272.93161693  .00009857  00000+0  12043-2 0  9997,2 40034  97.7095  72.9957 0049996 322.3758  37.3962 14.82573469552715,14.82573469,0.0049996,LEO
7268,COSMOS 644,1974,113.95,-1.0,UNK,74.02,Inactive,0,LEO,Russia,Russia/USSR,Unknown,Unknown,Unknown,1 07268U 74024D   24272.91160748  .00000004  00000+0  10902-3 0  9991,2 07268  74.0174 149.1979 0094287 175.1918 185.0068 12.63677029326776,12.63677029,0.0094287,LEO
